[{"OBJECT_NAME":"STARLINK-32705","OBJECT_ID":"2024-254T","EPOCH":"2026-03-09T04:28:47.211456","MEAN_MOTION":15.27607131,"ECCENTRICITY":0.00014023,"INCLINATION":43.0028,"RA_OF_ASC_NODE":11.6338,"ARG_OF_PERICENTER":251.0494,"MEAN_ANOMALY":109.0206,"EPHEMERIS_TYPE":0,"CLASSIFICATION_TYPE":"U","NORAD_CAT_ID":62479,"ELEMENT_SET_NO":999,"REV_AT_EPOCH":6750,"BSTAR":0.0010548736,"MEAN_MOTION_DOT":0.00028904,"MEAN_MOTION_DDOT":0},{"OBJECT_NAME":"EDISON-1","OBJECT_ID":"2025-009B","EPOCH":"2026-03-09T19:16:13.822464","MEAN_MOTION":15.29042904,"ECCENTRICITY":0.00043285,"INCLINATION":97.4042,"RA_OF_ASC_NODE":151.6286,"ARG_OF_PERICENTER":306.4185,"MEAN_ANOMALY":53.6655,"EPHEMERIS_TYPE":0,"CLASSIFICATION_TYPE":"U","NORAD_CAT_ID":62610,"ELEMENT_SET_NO":999,"REV_AT_EPOCH":6375,"BSTAR":0.00052814963,"MEAN_MOTION_DOT":0.00014835,"MEAN_MOTION_DDOT":0}]
